[{"OBJECT_NAME":"UTMN 2 (RS27S)","OBJECT_ID":"2023-091AP","EPOCH":"2026-03-09T23:09:07.917408","MEAN_MOTION":15.29495965,"ECCENTRICITY":0.00097379,"INCLINATION":97.5194,"RA_OF_ASC_NODE":134.949,"ARG_OF_PERICENTER":76.0788,"MEAN_ANOMALY":284.1534,"EPHEMERIS_TYPE":0,"CLASSIFICATION_TYPE":"U","NORAD_CAT_ID":57203,"ELEMENT_SET_NO":999,"REV_AT_EPOCH":14936,"BSTAR":0.00056135701,"MEAN_MOTION_DOT":0.00016013,"MEAN_MOTION_DDOT":0},{"OBJECT_NAME":"STARLINK-35699","OBJECT_ID":"2025-268A","EPOCH":"2026-03-09T03:48:31.739616","MEAN_MOTION":15.27557802,"ECCENTRICITY":0.00017558,"INCLINATION":43.0027,"RA_OF_ASC_NODE":350.493,"ARG_OF_PERICENTER":256.2018,"MEAN_ANOMALY":103.8638,"EPHEMERIS_TYPE":0,"CLASSIFICATION_TYPE":"U","NORAD_CAT_ID":66557,"ELEMENT_SET_NO":999,"REV_AT_EPOCH":1787,"BSTAR":0.0012539595,"MEAN_MOTION_DOT":0.00034382,"MEAN_MOTION_DDOT":0}]
